CCSDS_OMM_VERS = 2.0
CREATION_DATE  = 
ORIGINATOR     = 

OBJECT_NAME    = STARLINK-35338
OBJECT_ID      = 2025-245S
CENTER_NAME    = EARTH
REF_FRAME      = TEME
TIME_SYSTEM    = UTC
MEAN_ELEMENT_THEORY = SGP/SGP4

EPOCH          = 2025-11-25T11:47:25.105056
MEAN_MOTION    = 15.49312329
ECCENTRICITY   = .0001223
INCLINATION    = 53.1610
RA_OF_ASC_NODE = 50.6962
ARG_OF_PERICENTER = 80.6913
MEAN_ANOMALY   = 279.4235

EPHEMERIS_TYPE = 0
CLASSIFICATION_TYPE = U
NORAD_CAT_ID   = 66250
ELEMENT_SET_NO = 999
REV_AT_EPOCH   = 516
BSTAR          = .22103E-2
MEAN_MOTION_DOT = .124471E-2
MEAN_MOTION_DDOT = 0

CCSDS_OMM_VERS = 2.0
CREATION_DATE  = 
ORIGINATOR     = 

OBJECT_NAME    = STARLINK-35485
OBJECT_ID      = 2025-245T
CENTER_NAME    = EARTH
REF_FRAME      = TEME
TIME_SYSTEM    = UTC
MEAN_ELEMENT_THEORY = SGP/SGP4

EPOCH          = 2025-11-25T11:46:55.439616
MEAN_MOTION    = 15.49302046
ECCENTRICITY   = .0001335
INCLINATION    = 53.1608
RA_OF_ASC_NODE = 50.6941
ARG_OF_PERICENTER = 71.2286
MEAN_ANOMALY   = 288.8868

EPHEMERIS_TYPE = 0
CLASSIFICATION_TYPE = U
NORAD_CAT_ID   = 66251
ELEMENT_SET_NO = 999
REV_AT_EPOCH   = 505
BSTAR          = .20798E-2
MEAN_MOTION_DOT = .116942E-2
MEAN_MOTION_DDOT = 0

CCSDS_OMM_VERS = 2.0
CREATION_DATE  = 
ORIGINATOR     = 

OBJECT_NAME    = STARLINK-35483
OBJECT_ID      = 2025-245U
CENTER_NAME    = EARTH
REF_FRAME      = TEME
TIME_SYSTEM    = UTC
MEAN_ELEMENT_THEORY = SGP/SGP4

EPOCH          = 2025-11-25T11:45:55.755360
MEAN_MOTION    = 15.49347412
ECCENTRICITY   = .0001367
INCLINATION    = 53.1610
RA_OF_ASC_NODE = 50.6885
ARG_OF_PERICENTER = 93.5441
MEAN_ANOMALY   = 266.5725

EPHEMERIS_TYPE = 0
CLASSIFICATION_TYPE = U
NORAD_CAT_ID   = 66252
ELEMENT_SET_NO = 999
REV_AT_EPOCH   = 521
BSTAR          = .15709E-2
MEAN_MOTION_DOT = .88029E-3
MEAN_MOTION_DDOT = 0

CCSDS_OMM_VERS = 2.0
CREATION_DATE  = 
ORIGINATOR     = 

OBJECT_NAME    = STARLINK-35486
OBJECT_ID      = 2025-245V
CENTER_NAME    = EARTH
REF_FRAME      = TEME
TIME_SYSTEM    = UTC
MEAN_ELEMENT_THEORY = SGP/SGP4

EPOCH          = 2025-11-25T11:45:26.399232
MEAN_MOTION    = 15.49314582
ECCENTRICITY   = .0001218
INCLINATION    = 53.1611
RA_OF_ASC_NODE = 50.6868
ARG_OF_PERICENTER = 84.8779
MEAN_ANOMALY   = 275.2369

EPHEMERIS_TYPE = 0
CLASSIFICATION_TYPE = U
NORAD_CAT_ID   = 66253
ELEMENT_SET_NO = 999
REV_AT_EPOCH   = 505
BSTAR          = .13003E-2
MEAN_MOTION_DOT = .72556E-3
MEAN_MOTION_DDOT = 0

CCSDS_OMM_VERS = 2.0
CREATION_DATE  = 
ORIGINATOR     = 

OBJECT_NAME    = STARLINK-35488
OBJECT_ID      = 2025-245W
CENTER_NAME    = EARTH
REF_FRAME      = TEME
TIME_SYSTEM    = UTC
MEAN_ELEMENT_THEORY = SGP/SGP4

EPOCH          = 2025-11-25T11:44:56.884128
MEAN_MOTION    = 15.49321319
ECCENTRICITY   = .0001531
INCLINATION    = 53.1612
RA_OF_ASC_NODE = 50.6838
ARG_OF_PERICENTER = 36.5296
MEAN_ANOMALY   = 323.5817

EPHEMERIS_TYPE = 0
CLASSIFICATION_TYPE = U
NORAD_CAT_ID   = 66254
ELEMENT_SET_NO = 999
REV_AT_EPOCH   = 526
BSTAR          = .14676E-2
MEAN_MOTION_DOT = .82073E-3
MEAN_MOTION_DDOT = 0

CCSDS_OMM_VERS = 2.0
CREATION_DATE  = 
ORIGINATOR     = 

OBJECT_NAME    = STARLINK-35616
OBJECT_ID      = 2025-245X
CENTER_NAME    = EARTH
REF_FRAME      = TEME
TIME_SYSTEM    = UTC
MEAN_ELEMENT_THEORY = SGP/SGP4

EPOCH          = 2025-11-25T11:44:27.108096
MEAN_MOTION    = 15.49318363
ECCENTRICITY   = .0001277
INCLINATION    = 53.1609
RA_OF_ASC_NODE = 50.6815
ARG_OF_PERICENTER = 59.6714
MEAN_ANOMALY   = 300.4422

EPHEMERIS_TYPE = 0
CLASSIFICATION_TYPE = U
NORAD_CAT_ID   = 66255
ELEMENT_SET_NO = 999
REV_AT_EPOCH   = 526
BSTAR          = .15657E-2
MEAN_MOTION_DOT = .8764E-3
MEAN_MOTION_DDOT = 0

CCSDS_OMM_VERS = 2.0
CREATION_DATE  = 
ORIGINATOR     = 

OBJECT_NAME    = STARLINK-35619
OBJECT_ID      = 2025-245Y
CENTER_NAME    = EARTH
REF_FRAME      = TEME
TIME_SYSTEM    = UTC
MEAN_ELEMENT_THEORY = SGP/SGP4

EPOCH          = 2025-11-25T11:42:57.907008
MEAN_MOTION    = 15.49308692
ECCENTRICITY   = .0000914
INCLINATION    = 53.1608
RA_OF_ASC_NODE = 50.6744
ARG_OF_PERICENTER = 95.4736
MEAN_ANOMALY   = 264.6377

EPHEMERIS_TYPE = 0
CLASSIFICATION_TYPE = U
NORAD_CAT_ID   = 66256
ELEMENT_SET_NO = 999
REV_AT_EPOCH   = 526
BSTAR          = .14467E-2
MEAN_MOTION_DOT = .80846E-3
MEAN_MOTION_DDOT = 0

CCSDS_OMM_VERS = 2.0
CREATION_DATE  = 
ORIGINATOR     = 

OBJECT_NAME    = STARLINK-35615
OBJECT_ID      = 2025-245Z
CENTER_NAME    = EARTH
REF_FRAME      = TEME
TIME_SYSTEM    = UTC
MEAN_ELEMENT_THEORY = SGP/SGP4

EPOCH          = 2025-11-25T11:43:27.855840
MEAN_MOTION    = 15.49299956
ECCENTRICITY   = .0001794
INCLINATION    = 53.1611
RA_OF_ASC_NODE = 50.6778
ARG_OF_PERICENTER = 53.8161
MEAN_ANOMALY   = 306.3014

EPHEMERIS_TYPE = 0
CLASSIFICATION_TYPE = U
NORAD_CAT_ID   = 66257
ELEMENT_SET_NO = 999
REV_AT_EPOCH   = 526
BSTAR          = .13637E-2
MEAN_MOTION_DOT = .76113E-3
MEAN_MOTION_DDOT = 0

CCSDS_OMM_VERS = 2.0
CREATION_DATE  = 
ORIGINATOR     = 

OBJECT_NAME    = STARLINK-34650
OBJECT_ID      = 2025-245AA
CENTER_NAME    = EARTH
REF_FRAME      = TEME
TIME_SYSTEM    = UTC
MEAN_ELEMENT_THEORY = SGP/SGP4

EPOCH          = 2025-11-25T11:43:58.768032
MEAN_MOTION    = 15.49331218
ECCENTRICITY   = .0000867
INCLINATION    = 53.1615
RA_OF_ASC_NODE = 50.6795
ARG_OF_PERICENTER = 100.2793
MEAN_ANOMALY   = 259.8314

EPHEMERIS_TYPE = 0
CLASSIFICATION_TYPE = U
NORAD_CAT_ID   = 66258
ELEMENT_SET_NO = 999
REV_AT_EPOCH   = 526
BSTAR          = .16913E-2
MEAN_MOTION_DOT = .94838E-3
MEAN_MOTION_DDOT = 0

CCSDS_OMM_VERS = 2.0
CREATION_DATE  = 
ORIGINATOR     = 

OBJECT_NAME    = STARLINK-35529
OBJECT_ID      = 2025-245AB
CENTER_NAME    = EARTH
REF_FRAME      = TEME
TIME_SYSTEM    = UTC
MEAN_ELEMENT_THEORY = SGP/SGP4

EPOCH          = 2025-11-25T11:41:58.636608
MEAN_MOTION    = 15.49303485
ECCENTRICITY   = .0001188
INCLINATION    = 53.1609
RA_OF_ASC_NODE = 50.6697
ARG_OF_PERICENTER = 86.6829
MEAN_ANOMALY   = 273.4316

EPHEMERIS_TYPE = 0
CLASSIFICATION_TYPE = U
NORAD_CAT_ID   = 66259
ELEMENT_SET_NO = 999
REV_AT_EPOCH   = 526
BSTAR          = .13857E-2
MEAN_MOTION_DOT = .77372E-3
MEAN_MOTION_DDOT = 0

CCSDS_OMM_VERS = 2.0
CREATION_DATE  = 
ORIGINATOR     = 

OBJECT_NAME    = STARLINK-35420
OBJECT_ID      = 2025-245AC
CENTER_NAME    = EARTH
REF_FRAME      = TEME
TIME_SYSTEM    = UTC
MEAN_ELEMENT_THEORY = SGP/SGP4

EPOCH          = 2025-11-25T11:42:28.455840
MEAN_MOTION    = 15.49318731
ECCENTRICITY   = .0001349
INCLINATION    = 53.1606
RA_OF_ASC_NODE = 50.6723
ARG_OF_PERICENTER = 51.7947
MEAN_ANOMALY   = 308.3184

EPHEMERIS_TYPE = 0
CLASSIFICATION_TYPE = U
NORAD_CAT_ID   = 66260
ELEMENT_SET_NO = 999
REV_AT_EPOCH   = 526
BSTAR          = .14441E-2
MEAN_MOTION_DOT = .80731E-3
MEAN_MOTION_DDOT = 0

CCSDS_OMM_VERS = 2.0
CREATION_DATE  = 
ORIGINATOR     = 

OBJECT_NAME    = STARLINK-35536
OBJECT_ID      = 2025-245AD
CENTER_NAME    = EARTH
REF_FRAME      = TEME
TIME_SYSTEM    = UTC
MEAN_ELEMENT_THEORY = SGP/SGP4

EPOCH          = 2025-11-25T11:41:29.097312
MEAN_MOTION    = 15.49326325
ECCENTRICITY   = .000138
INCLINATION    = 53.1615
RA_OF_ASC_NODE = 50.6680
ARG_OF_PERICENTER = 45.5069
MEAN_ANOMALY   = 314.6053

EPHEMERIS_TYPE = 0
CLASSIFICATION_TYPE = U
NORAD_CAT_ID   = 66261
ELEMENT_SET_NO = 999
REV_AT_EPOCH   = 526
BSTAR          = .16131E-2
MEAN_MOTION_DOT = .90363E-3
MEAN_MOTION_DDOT = 0

CCSDS_OMM_VERS = 2.0
CREATION_DATE  = 
ORIGINATOR     = 

OBJECT_NAME    = STARLINK-35487
OBJECT_ID      = 2025-245AE
CENTER_NAME    = EARTH
REF_FRAME      = TEME
TIME_SYSTEM    = UTC
MEAN_ELEMENT_THEORY = SGP/SGP4

EPOCH          = 2025-11-25T10:08:05.733312
MEAN_MOTION    = 15.49415470
ECCENTRICITY   = .0000966
INCLINATION    = 53.1612
RA_OF_ASC_NODE = 50.9739
ARG_OF_PERICENTER = 111.2521
MEAN_ANOMALY   = 248.8592

EPHEMERIS_TYPE = 0
CLASSIFICATION_TYPE = U
NORAD_CAT_ID   = 66262
ELEMENT_SET_NO = 999
REV_AT_EPOCH   = 520
BSTAR          = .24502E-2
MEAN_MOTION_DOT = .138791E-2
MEAN_MOTION_DDOT = 0

CCSDS_OMM_VERS = 2.0
CREATION_DATE  = 
ORIGINATOR     = 

OBJECT_NAME    = STARLINK-35801
OBJECT_ID      = 2025-247A
CENTER_NAME    = EARTH
REF_FRAME      = TEME
TIME_SYSTEM    = UTC
MEAN_ELEMENT_THEORY = SGP/SGP4

EPOCH          = 2025-11-25T12:00:05.998752
MEAN_MOTION    = 15.39565695
ECCENTRICITY   = .0001379
INCLINATION    = 53.1605
RA_OF_ASC_NODE = 318.8800
ARG_OF_PERICENTER = 85.8117
MEAN_ANOMALY   = 240.0037

EPHEMERIS_TYPE = 0
CLASSIFICATION_TYPE = U
NORAD_CAT_ID   = 66265
ELEMENT_SET_NO = 999
REV_AT_EPOCH   = 484
BSTAR          = .15108E-2
MEAN_MOTION_DOT = .60404E-3
MEAN_MOTION_DDOT = 0

CCSDS_OMM_VERS = 2.0
CREATION_DATE  = 
ORIGINATOR     = 

OBJECT_NAME    = STARLINK-35056
OBJECT_ID      = 2025-247B
CENTER_NAME    = EARTH
REF_FRAME      = TEME
TIME_SYSTEM    = UTC
MEAN_ELEMENT_THEORY = SGP/SGP4

EPOCH          = 2025-11-25T12:00:05.998752
MEAN_MOTION    = 15.39563613
ECCENTRICITY   = .0001583
INCLINATION    = 53.1608
RA_OF_ASC_NODE = 318.8756
ARG_OF_PERICENTER = 78.1476
MEAN_ANOMALY   = 249.5261

EPHEMERIS_TYPE = 0
CLASSIFICATION_TYPE = U
NORAD_CAT_ID   = 66266
ELEMENT_SET_NO = 999
REV_AT_EPOCH   = 511
BSTAR          = .15229E-2
MEAN_MOTION_DOT = .60889E-3
MEAN_MOTION_DDOT = 0

